{
  "links" : {
    "next" : "https://api.nasa.gov/neo/rest/v1/feed?start_date=2013-08-23&end_date=2013-08-23&detailed=true&api_key=t0TVs3DtDT2H8Oy2Zy8m2eVrNsAVKAexjcZXUckd",
    "prev" : "https://api.nasa.gov/neo/rest/v1/feed?start_date=2013-08-21&end_date=2013-08-21&detailed=true&api_key=t0TVs3DtDT2H8Oy2Zy8m2eVrNsAVKAexjcZXUckd",
    "self" : "https://api.nasa.gov/neo/rest/v1/feed?start_date=2013-08-22&end_date=2013-08-22&detailed=true&api_key=t0TVs3DtDT2H8Oy2Zy8m2eVrNsAVKAexjcZXUckd"
  },
  "element_count" : 6,
  "near_earth_objects" : {
    "2013-08-22" : [ {
      "links" : {
        "self" : "https://api.nasa.gov/neo/rest/v1/neo/3647022?api_key=t0TVs3DtDT2H8Oy2Zy8m2eVrNsAVKAexjcZXUckd"
      },
      "neo_reference_id" : "3647022",
      "name" : "(2013 QO48)",
      "nasa_jpl_url" : "http://ssd.jpl.nasa.gov/sbdb.cgi?sstr=3647022",
      "absolute_magnitude_h" : 26.5,
      "estimated_diameter" : {
        "kilometers" : {
          "estimated_diameter_min" : 0.0133215567,
          "estimated_diameter_max" : 0.0297879063
        },
        "meters" : {
          "estimated_diameter_min" : 13.3215566698,
          "estimated_diameter_max" : 29.7879062798
        },
        "miles" : {
          "estimated_diameter_min" : 0.008277629,
          "estimated_diameter_max" : 0.0185093411
        },
        "feet" : {
          "estimated_diameter_min" : 43.7058959846,
          "estimated_diameter_max" : 97.7293544391
        }
      },
      "is_potentially_hazardous_asteroid" : false,
      "close_approach_data" : [ {
        "close_approach_date" : "2013-08-22",
        "epoch_date_close_approach" : 1377154800000,
        "relative_velocity" : {
          "kilometers_per_second" : "9.3630903661",
          "kilometers_per_hour" : "33707.125317821",
          "miles_per_hour" : "20944.2968398427"
        },
        "miss_distance" : {
          "astronomical" : "0.0265188725",
          "lunar" : "10.3158416748",
          "kilometers" : "3967166.75",
          "miles" : "2465083.25"
        },
        "orbiting_body" : "Earth"
      } ],
      "orbital_data" : {
        "orbit_id" : "4",
        "orbit_determination_date" : "2017-04-06 08:44:58",
        "orbit_uncertainty" : "8",
        "minimum_orbit_intersection" : ".0188093",
        "jupiter_tisserand_invariant" : "4.122",
        "epoch_osculation" : "2456536.5",
        "eccentricity" : ".4296048742710131",
        "semi_major_axis" : "1.678489875930337",
        "inclination" : "4.975505830490796",
        "ascending_node_longitude" : "157.7723301932953",
        "orbital_period" : "794.2852834295036",
        "perihelion_distance" : ".9574024438161162",
        "perihelion_argument" : "131.5885657983566",
        "aphelion_distance" : "2.399577308044558",
        "perihelion_time" : "2456494.463013636664",
        "mean_anomaly" : "19.05274516161183",
        "mean_motion" : ".4532376559283836",
        "equinox" : "J2000"
      }
    }, {
      "links" : {
        "self" : "https://api.nasa.gov/neo/rest/v1/neo/3653918?api_key=t0TVs3DtDT2H8Oy2Zy8m2eVrNsAVKAexjcZXUckd"
      },
      "neo_reference_id" : "3653918",
      "name" : "(2013 WV44)",
      "nasa_jpl_url" : "http://ssd.jpl.nasa.gov/sbdb.cgi?sstr=3653918",
      "absolute_magnitude_h" : 22.7,
      "estimated_diameter" : {
        "kilometers" : {
          "estimated_diameter_min" : 0.0766575574,
          "estimated_diameter_max" : 0.1714115092
        },
        "meters" : {
          "estimated_diameter_min" : 76.6575573531,
          "estimated_diameter_max" : 171.4115092306
        },
        "miles" : {
          "estimated_diameter_min" : 0.0476327831,
          "estimated_diameter_max" : 0.1065101409
        },
        "feet" : {
          "estimated_diameter_min" : 251.5011804664,
          "estimated_diameter_max" : 562.3737359442
        }
      },
      "is_potentially_hazardous_asteroid" : false,
      "close_approach_data" : [ {
        "close_approach_date" : "2013-08-22",
        "epoch_date_close_approach" : 1377154800000,
        "relative_velocity" : {
          "kilometers_per_second" : "10.2742165854",
          "kilometers_per_hour" : "36987.1797075257",
          "miles_per_hour" : "22982.3950799345"
        },
        "miss_distance" : {
          "astronomical" : "0.1551423627",
          "lunar" : "60.3503799438",
          "kilometers" : "23208968",
          "miles" : "14421384"
        },
        "orbiting_body" : "Earth"
      } ],
      "orbital_data" : {
        "orbit_id" : "6",
        "orbit_determination_date" : "2017-04-06 08:43:30",
        "orbit_uncertainty" : "7",
        "minimum_orbit_intersection" : ".0128348",
        "jupiter_tisserand_invariant" : "3.838",
        "epoch_osculation" : "2458000.5",
        "eccentricity" : ".5273884529386118",
        "semi_major_axis" : "1.837051445535797",
        "inclination" : "5.219064691301514",
        "ascending_node_longitude" : "101.4169639666518",
        "orbital_period" : "909.4533034944503",
        "perihelion_distance" : ".8682117257060327",
        "perihelion_argument" : "226.3602930144464",
        "aphelion_distance" : "2.805891165365562",
        "perihelion_time" : "2458345.498009570599",
        "mean_anomaly" : "223.4352275502253",
        "mean_motion" : ".3958422039006831",
        "equinox" : "J2000"
      }
    }, {
      "links" : {
        "self" : "https://api.nasa.gov/neo/rest/v1/neo/3092069?api_key=t0TVs3DtDT2H8Oy2Zy8m2eVrNsAVKAexjcZXUckd"
      },
      "neo_reference_id" : "3092069",
      "name" : "(2001 QJ142)",
      "nasa_jpl_url" : "http://ssd.jpl.nasa.gov/sbdb.cgi?sstr=3092069",
      "absolute_magnitude_h" : 23.7,
      "estimated_diameter" : {
        "kilometers" : {
          "estimated_diameter_min" : 0.0483676488,
          "estimated_diameter_max" : 0.1081533507
        },
        "meters" : {
          "estimated_diameter_min" : 48.3676488219,
          "estimated_diameter_max" : 108.1533506775
        },
        "miles" : {
          "estimated_diameter_min" : 0.0300542543,
          "estimated_diameter_max" : 0.0672033557
        },
        "feet" : {
          "estimated_diameter_min" : 158.6865169607,
          "estimated_diameter_max" : 354.8338390368
        }
      },
      "is_potentially_hazardous_asteroid" : false,
      "close_approach_data" : [ {
        "close_approach_date" : "2013-08-22",
        "epoch_date_close_approach" : 1377154800000,
        "relative_velocity" : {
          "kilometers_per_second" : "9.2949217056",
          "kilometers_per_hour" : "33461.718140168",
          "miles_per_hour" : "20791.8103632616"
        },
        "miss_distance" : {
          "astronomical" : "0.2273049699",
          "lunar" : "88.4216308594",
          "kilometers" : "34004340",
          "miles" : "21129316"
        },
        "orbiting_body" : "Earth"
      } ],
      "orbital_data" : {
        "orbit_id" : "22",
        "orbit_determination_date" : "2017-04-06 09:16:12",
        "orbit_uncertainty" : "0",
        "minimum_orbit_intersection" : ".0103815",
        "jupiter_tisserand_invariant" : "5.798",
        "epoch_osculation" : "2458000.5",
        "eccentricity" : ".08621342470156129",
        "semi_major_axis" : "1.06210421823559",
        "inclination" : "3.103709354579149",
        "ascending_node_longitude" : "184.3889438650426",
        "orbital_period" : "399.8058342757714",
        "perihelion_distance" : ".9705365761915252",
        "perihelion_argument" : "63.96782374961578",
        "aphelion_distance" : "1.153671860279655",
        "perihelion_time" : "2458060.317489165320",
        "mean_anomaly" : "306.138114421158",
        "mean_motion" : ".9004370850468512",
        "equinox" : "J2000"
      }
    } ]
  }
}